ID;name;Region;country;Geographic Area;Continent;latitude;longitude;Latitude 2;Longitude 2;Latitude 3;Longitude 3
1;In the footsteps of Rubens;Antwerp;Belgium;West Europe;Europe;51,2213;4,4051;;;;
2;Belgian beer;-;Belgium;West Europe;Europe;50,8485;4,3539;;;;
3;Bruges;Brügge;Belgium;West Europe;Europe;51,2092;3,2248;;;;
4;Belgian fries;Brüssel;Belgium;West Europe;Europe;50,8476;4,3572;;;;
5;Belgische chocolate;Brüssel;Belgium;West Europe;Europe;50,8476;4,3572;;;;
6;The Grand Place;Brüssel;Belgium;West Europe;Europe;50,8468;4,3524;;;;
7;The model city of the Art Noveau;Brüssel;Belgium;West Europe;Europe;50,8476;4,3524;;;;
8;Ghent;Gent;Belgium;West Europe;Europe;51,05;3,7303;;;;
9;Liège;Liège;Belgium;West Europe;Europe;50,633;5,5697;;;;
10;Baden-Baden and the black forest;Baden-Wüttemberg;Germany;West Europe;Europe;48,7656;8,2285;48,2775;8,186;;
11;Heidelberg castle;Baden-Wüttemberg;Germany;West Europe;Europe;49,4106;8,7153;;;;
12;Bamberg;Bayern;Germany;West Europe;Europe;49,8988;10,9028;;;;
13;Bavarian beer culture;Bayern;Germany;West Europe;Europe;48,1376;11,5799;;;;
14;Lake Constance and the German Alpine Road;Bayern;Germany;West Europe;Europe;47,6363;9,3892;;;;
15;The christmas markets;Bayern;Germany;West Europe;Europe;48,1374;11,5754;;;;
16;The Munich Pinakotheks and the Deutsches Museum;Bayern;Germany;West Europe;Europe;48,1483;11,57;48,1499;11,5711;48,1247;11,5833
17;Regensburg;Bayern;Germany;West Europe;Europe;49,0134;12,1016;;;;
18;The Romantic Road and Neuschwanstein Castle;Bayern;Germany;West Europe;Europe;48,81132;10,5879;47,5576;10,7498;;
19;The (new) architecture of Berlin;Berlin;Germany;West Europe;Europe;52,52;13,405;;;;
20;Mitte;Berlin;Germany;West Europe;Europe;52,5373;13,3603;;;;
21;Museums and art in Berlin;Berlin;Germany;West Europe;Europe;52,52;13,405;;;;
22;Sanssouci;Brandenburg;Germany;West Europe;Europe;52,4042;13,0385;;;;
23;The Cologne Cathedral;Nordhein-Westfalen;Germany;West Europe;Europe;50,9413;6,9583;;;;
24;The Middle Rhine;Rheinland-Pfalz;Germany;West Europe;Europe;50,1615;7,7009;;;;
25;Dresden old town;Sachsen;Germany;West Europe;Europe;51,0504;13,738;;;;
26;Quedlinburg;Sachsen-Anhalt;Germany;West Europe;Europe;51,7921;11,1414;;;;
27;Lübeck;Schleswig-Holstein;Germany;West Europe;Europe;53,8655;10,6866;;;;
28;Sylt;Schleswig-Holstein;Germany;West Europe;Europe;54,9083;8,318;;;;
29;Weimar;Thüringien;Germany;West Europe;Europe;50,9795;11,3235;;;;
30;Cambridge University;Cambridgeshire;England;West Europe;Europe;52,2054;0,1132;;;;
31;Chester;Cheshire;England;West Europe;Europe;53,1934;-2,8931;;;;
32;Lands End;Cornwall;England;West Europe;Europe;50,0657;-5,7132;;;;
33;Padstow and St. Mawes;Cornwall;England;West Europe;Europe;50,5421;-4,939;50,1586;5,0146;;
34;Chatsworth House;Derbyshire;England;West Europe;Europe;53,2275;-1,6114;;;;
35;Dartmoor;Devon;England;West Europe;Europe;50,5719;-3,9207;;;;
36;Exmoor;Devon und Somerset;England;West Europe;Europe;51,1391;-3,7578;;;;
37;Glyndebourne Festival;East Sussex;England;West Europe;Europe;50,8783;0,0642;;;;
38;The Cotswold;Gloucestershire;England;West Europe;Europe;51,795;-1,8839;;;;
39;The Cunard Line cruise ships;Hampshire;England;West Europe;Europe;50,9105;-1,4049;;;;
40;Winchester Cathedral;Hampshire;England;West Europe;Europe;51,0607;-1,3132;;;;
41;Osborne House;Isle of Wight;England;West Europe;Europe;50,7504;-1,2694;;;;
42;Canterbury Cathedral;Kent;England;West Europe;Europe;51,2798;1,0828;;;;
43;Leeds Castle;Kent;England;West Europe;Europe;51,2487;-0,6298;;;;
44;The garden of Sissinghurst Castle;Kent;England;West Europe;Europe;51,1155;0,5827;;;;
45;The Lake District;Lancashire ;England;West Europe;Europe;54,462;-3,0883;;;;
46;London;London;England;West Europe;Europe;51,5072;-0,1276;;;;
47;Hadrians Wall;Northumberland;England;West Europe;Europe;54,9899;-2,6017;;;;
48;International Antiques & Collectors Fair;Nottinghamshire;England;West Europe;Europe;53,0989;-0,768;;;;
49;Blenheim Palace;Oxfordshire;England;West Europe;Europe;51,8414;-1,361;;;;
50;Ludlow;Shropshire;England;West Europe;Europe;52,3677;-2,7139;;;;
51;Bath;Somerset;England;West Europe;Europe;51,3781;-2,3597;;;;
52;Wells Cathedral;Somerset;England;West Europe;Europe;51,2104;-2,6434;;;;
53;Stratford-Upon-Avon;Warwicksire;England;West Europe;Europe;52,1917;-1,7083;;;;
54;Warwick Castle;Warwicksire;England;West Europe;Europe;52,2797;-1,5852;;;;
55;Salisbury Cathedral;Wiltshire;England;West Europe;Europe;51,065;-1,7973;;;;
56;Stonehenge;Wiltshire;England;West Europe;Europe;51,1789;-1,8262;;;;
57;Stourhead Garden;Wiltshire;England;West Europe;Europe;51,108;-2,3191;;;;
58;Castle Howard;Yorkshire;England;West Europe;Europe;54,1218;-0,9061;;;;
59;York Minister;Yorkshire;England;West Europe;Europe;53,9623;-1,0819;;;;
60;Biarritz and the Basque Country;Aquitaine;France;West Europe;Europe;43,4832;1,5586;;;;
61;Bordeaux;Aquitaine;France;West Europe;Europe;43,4906;-1,4766;;;;
62;The Dordogne;Aquitaine;France;West Europe;Europe;45,1469;0,7572;;;;
63;Les Prés d´Eugénie;Aquitaine;France;West Europe;Europe;43,69598;-0,3791;;;;
64;The Emerald Coast of Brittany;Bretagne;France;West Europe;Europe;48,633;2,0551;48,629;2,4656;48,6493;2,0257
65;Belle-Île, Île de Ré and Île de Porquerolles;Bretagne;France;West Europe;Europe;47,3364;3,181;46,1911;1,3945;43,001;6,2217
66;Burgundy;Burgundy;France;West Europe;Europe;47,322;5,0415;;;;
67;Champagne;Champagne;France;West Europe;Europe;49,2583;4,0317;;;;
68;Strasbourg and the Alsatian wine Route;Elsass;France;West Europe;Europe;48,5734;7,7521;48,0794;7,3585;;
69;Normandy D-Day beaches;Haute-Normandie;France;West Europe;Europe;49,4181;-1,1764;;;;
70;Mont St-Michel;Haute-Normandie;France;West Europe;Europe;48,6361;1,15115;;;;
71;The Normandy of the Impressionists;Haute-Normandie;France;West Europe;Europe;49,1829;0,3707;49,0765;1,53146;49,4434;1,0999
72;Lac de Annecy;Haute-Savoie;France;West Europe;Europe;45,8615;6,1673;;;;
73;Paris;Île de France;France;West Europe;Europe;48,8566;2,3522;;;;
74;The Calanches;Korsika;France;West Europe;Europe;42,2455;8,6535;;;;
75;Albi;Languedoc-Rousillon;France;West Europe;Europe;43,9251;2,1486;;;;
76;Carcassonne;Languedoc-Rousillon;France;West Europe;Europe;43,2132;2,3518;;;;
77;Nancy;Lothringen;France;West Europe;Europe;48,6921;6,1844;;;;
78;Lourdes;Midi-Pyrénées;France;West Europe;Europe;43,0915;0,0457;;;;
79;The Loire Valley;Pays de la Loire;France;West Europe;Europe;47,903;1,9093;47,4712;0,5518;47,3941;0,6848
80;Aix-en-Provence;Provence-Alpes;France;West Europe;Europe;43,5297;5,4474;;;;
81;Old Marseille and Cassis;Provence-Alpes;France;West Europe;Europe;43,2965;5,3698;43,2151;5,5371;;
82;Old Nice;Provence-Alpes;France;West Europe;Europe;43,7102;7,262;;;;
83;Arles and the Alpilles;Provence-Alpes;France;West Europe;Europe;43,6766;4,6278;;;;
84;Avignon;Provence-Alpes;France;West Europe;Europe;43,9493;4,8055;;;;
85;The Camargue;Provence-Alpes;France;West Europe;Europe;43,5939;4,469;;;;
86;Cannes;Provence-Alpes;France;West Europe;Europe;43,5528;7,0174;;;;
87;The French Riviera;Provence-Alpes;France;West Europe;Europe;43,2677;6,6407;43,7401;7,4266;;
88;The Luberon;Provence-Alpes;France;West Europe;Europe;43,7961;5,2239;;;;
89;Moustiers and the Verdon Gorges;Provence-Alpes;France;West Europe;Europe;43,8457;6,2215;43,7614;6,3788;;
90;St. Paul de Vence and Vence;Provence-Alpes;France;West Europe;Europe;43,7223;7,1117;43,697;7,1221;;
91;Beaujolais and the Rhone valley;Rhône-Alpes;France;West Europe;Europe;46,0113;4,6216;46,3069;4,8287;;
92;The French Alps;Rhône-Alpes;France;West Europe;Europe;45,9237;6,8694;;;;
93;Eating out in Lyon;Rhône-Alpes;France;West Europe;Europe;45,764;4,8357;;;;
94;The Clare coast;County Clare;Ireland;West Europe;Europe;52,9715;-9,4309;;;;
95;Ireland golf paradise;Cty. Clare - Cty. Kerry;Ireland;West Europe;Europe;52,4952;-9,6761;;;;
96;Cork Jazz Festival und Blarney Castle;County Cork;Ireland;West Europe;Europe;51,9014;-8,468;;;;
97;Culinary Cork;County Cork;Ireland;West Europe;Europe;51,8978;-8,4746;;;;
98;Wild Donegal;County Donegal;Ireland;West Europe;Europe;54,6413;-8,6813;;;;
99;Historic Dublin;Dublin;Ireland;West Europe;Europe;53,3498;-6,2603;;;;
100;Delicious Dublin;Dublin;Ireland;West Europe;Europe;53,3498;-6,2603;;;;
101;Literary Dublin;Dublin;Ireland;West Europe;Europe;53,3498;-6,2603;;;;
102;Pubs and St. Patrick Festival;Dublin;Ireland;West Europe;Europe;53,3498;-6,2603;;;;
103;The Aran Islands;County Galway;Ireland;West Europe;Europe;53,0972;-9,6563;;;;
104;Connemara;County Galway;Ireland;West Europe;Europe;53,5384;-9,8875;;;;
105;Galway;County Galway;Ireland;West Europe;Europe;53,2707;-9,0568;;;;
106;Dingle Peninsula;County Kerry;Ireland;West Europe;Europe;52,2041;-10,1243;;;;
107;The Ring of Kerry;County Kerry;Ireland;West Europe;Europe;51,9427;-9,9172;;;;
108;Country of horses;Straffan - Thomastown;Ireland;West Europe;Europe;53,3119;-6,6088;52,5271;-7,1388;;
109;Adare;Adare;Ireland;West Europe;Europe;52,5636;-8,7926;;;;
110;Ashford Castle;Cong;Ireland;West Europe;Europe;53,5346;-9,2849;;;;
111;Boyne Valley;County Meath;Ireland;West Europe;Europe;53,7004;-6,4555;;;;
112;The Land of W. B. Yeats;County Sligo;Ireland;West Europe;Europe;54,2766;-8,4761;;;;
113;Waterford Crystal and Waterford Castle;Waterford;Ireland;West Europe;Europe;52,2593;-7,1068;52,2517;-7,0583;;
114;Wexford Festival Opera;Wexford;Ireland;West Europe;Europe;52,338;-6,4622;;;;
115;The Gardens of Wicklow;County Wicklow;Ireland;West Europe;Europe;53,1845;-6,1868;;;;
119;Luxembourg city;Luxemburg;Luxembourg;West Europe;Europe;49,8153;6,1296;;;;
120;Monaco;Monaco;Monaco;West Europe;Europe;43,7384;7,4246;;;;
121;Amsterdam;Niederlande;Netherlands;West Europe;Europe;52,3676;4,9041;;;;
122;De Hoge Veluwe National Park;Apeldoorn;Netherlands;West Europe;Europe;52,0787;5,8325;;;;
123;Delft;Niederlande;Netherlands;West Europe;Europe;52,0116;4,3571;;;;
124;Het Mauritshuis;Den Haag;Netherlands;West Europe;Europe;52,0804;4,3143;;;;
125;The European Fine Arts Fair;Maastricht;Netherlands;West Europe;Europe;50,8387;5,7121;;;;
126;Zeeland;Niederlande;Netherlands;West Europe;Europe;51,494;3,8497;;;;
116;The new Belfast;Nordirland;North Ireland;West Europe;Europe;54,5973;-5,9301;;;;
117;Causeway Coast;Nordirland;North Ireland;West Europe;Europe;55,0432;-6,6741;;;;
118;The Kingdom of Morne;Nordirland;North Ireland;West Europe;Europe;54,1533;-6,0663;;;;
127;The old Graz;Österreich;Austria;West Europe;Europe;47,0707;15,4395;;;;
128;The Arlberg region and Kitzbühel;Österreich;Austria;West Europe;Europe;47,1575;10,2131;47,4492;12,3925;;
129;The Grossglockner High Alpine Road and Hallstatt;Österreich;Austria;West Europe;Europe;47,0833;12,8428;47,5622;13,6493;;
130;The Austrian music festivals;Österreich;Austria;West Europe;Europe;47,5008;9,7423;47,8095;13,055;47,3608;9,6867
131;Salzburg: Baroque and Modern;Österreich;Austria;West Europe;Europe;47,8095;13,055;;;;
132;The Wachau;Österreich;Austria;West Europe;Europe;48,3896;15,4749;;;;
133;Vienna;Österreich;Austria;West Europe;Europe;48,2082;16,3738;;;;
134;The Balmoral Hotel and the Royal Scotsman;Edinburgh;Scotland;West Europe;Europe;55,953;-3,1895;55,9524;-3,1883;;
135;Edinburgh Castle and Festivals;Edinburgh;Scotland;West Europe;Europe;55,9533;-3,1883;;;;
136;Mackintosh Glasgow;Glasgow;Scotland;West Europe;Europe;55,8642;-4,2518;;;;
137;The Castle Trail;Grampian Mountains;Scotland;West Europe;Europe;57,1499;-2,0938;56,9167;4;;
138;The Hebrides;Schottland;Scotland;West Europe;Europe;57,0455;-6,5127;;;;
139;Argyll Highlands;Highlands;Scotland;West Europe;Europe;56,4006;-5,4807;;;;
140;Highlands Games;Braemar;Scotland;West Europe;Europe;57,0065;-3,3979;;;;
141;Loch Ness;Highlands;Scotland;West Europe;Europe;57,3229;-4,4244;;;;
142;The Malt Whiskey Trail;Speyside;Scotland;West Europe;Europe;57,0687;-3,9863;;;;
143;Loch Lomond and the Trossachs;Schottland;Scotland;West Europe;Europe;56,1114;-4,6289;56,2343;-4,41;;
144;Orkney;Schottland;Scotland;West Europe;Europe;58,9809;-2,9605;;;;
145;Golf in Scotland;Schottland;Scotland;West Europe;Europe;56,3398;-2,7967;56,0418;-2,8208;;
146;Art city of Basel;Schweiz;Switzerland;West Europe;Europe;47,5596;7,5886;;;;
147;Gstaad;Berner Oberland;Switzerland;West Europe;Europe;46,4718;7,2866;;;;
148;Hiking in the high mountains;Berner Oberland;Switzerland;West Europe;Europe;46,4947;7,6744;;;;
149;Davos-Klosters;Graubünden;Switzerland;West Europe;Europe;46,8699;9,8829;;;;
150;St. Moritz and the Engadin;Graubünden;Switzerland;West Europe;Europe;46,4908;9,8355;46,6502;10,0287;;
151;The Lucerne Riviera;Schweiz;Switzerland;West Europe;Europe;47,0502;8,3093;;;;
152;The most beautiful train routes in the Alps;Schweiz;Switzerland;West Europe;Europe;46,4908;9,8355;46,0207;7,7491;;
153;Lugano;Tessin;Switzerland;West Europe;Europe;46,0037;8,9511;;;;
154;The Montreux Jazz Festival;Waadt;Switzerland;West Europe;Europe;46,4312;6,9107;;;;
155;Verbier;Wallis;Switzerland;West Europe;Europe;46,0961;7,2286;;;;
156;Zermatt and Saas Fee;Wallis;Switzerland;West Europe;Europe;46,0207;7,7491;46,1091;7,9297;;
157;Art places in Zurich;Schweiz;Switzerland;West Europe;Europe;47,3769;8,5417;;;;
158;Hay-On-Wye;Mid Wales;Wales;West Europe;Europe;52,0757;-3,1259;;;;
159;The North Wales Castles;North Wales;Wales;West Europe;Europe;53,2829;-3,8295;53,1396;-4,2739;;
160;International Musical Eisteddfod;Llangollen;Wales;West Europe;Europe;52,9737;-3,1753;;;;
161;The Lleyn Peninsula;North Wales;Wales;West Europe;Europe;52,8962;-4,5041;;;;
162;Snowdonia National Park;North Wales;Wales;West Europe;Europe;52,852;-3,9373;;;;
163;The Land of Dylan Thomas;South Wales;Wales;West Europe;Europe;51,7692;-4,4643;;;;
164;The Wye Valley;Southeast Wales;Wales;West Europe;Europe;51,6999;-2,6997;;;;
165;St. Davids Cathedral;Pembrokeshire;Wales;West Europe;Europe;51,882;-5,2683;;;;
166;The Acropolis;Athen;Greece;South Europe;Europe;37,9715;23,7257;;;;
167;The museums of Athens;Athen;Greece;South Europe;Europe;37,5921;23,4356;37,976;23,7404;;
168;Hydra and Spetses;Saronische Inseln;Greece;South Europe;Europe;37,3288;23,4717;37,2626;23,1322;;
169;Patmos;Dodekanes;Greece;South Europe;Europe;37,313;26,5469;;;;
170;Rhodes and Symi;Dodekanes;Greece;South Europe;Europe;36,5856;27,8429;;;;
171;Crete;Kreta;Greece;South Europe;Europe;35,2401;24,8093;;;;
172;Mykonos and Delos;Kykladen;Greece;South Europe;Europe;37,4415;25,3667;37,3963;25,2689;;
173;Naxos and Paros;Kykladen;Greece;South Europe;Europe;37,1036;25,3777;;;;
174;Santorini;Kykladen;Greece;South Europe;Europe;36,3932;25,4615;;;;
175;Sifnos;Kykladen;Greece;South Europe;Europe;36,968;24,7024;;;;
176;Athos;Makedonien;Greece;South Europe;Europe;40,2645;24,2153;;;;
177;Delphi;Mittelgriechenland;Greece;South Europe;Europe;38,4801;22,4941;;;;
178;The Mani Peninsula;Peloponnes;Greece;South Europe;Europe;36,7722;22,3815;;;;
179;Monemvasia;Peloponnes;Greece;South Europe;Europe;36,6876;23,056;;;;
180;Nafplio and the surrounding classical sites;Peloponnes;Greece;South Europe;Europe;37,5673;22,8016;37,5961;23,0793;37,9386;22,9322
181;Metéora;Thessalien;Greece;South Europe;Europe;39,7217;21,6306;;;;
182;Courmayeur and Mont Blanc;Aostatal;Italy;South Europe;Europe;45,7969;6,969;45,8326;6,8652;;
183;Alberobello and the Salento Peninsula;Apulia;Italy;South Europe;Europe;40,7864;17,2409;40,4234;17,9532;;
184;The Sassi of Matera;Baliscata;Italy;South Europe;Europe;40,6657;16,6115;;;;
185;The Quadrilatero;Bologna;Italy;South Europe;Europe;44,4925;11,3448;;;;
186;La Piazza del Duomo;Parma;Italy;South Europe;Europe;44,8034;10,3305;;;;
187;Ravenna;Ravenna;Italy;South Europe;Europe;44,4184;12,2035;;;;
188;Friuli;-;Italy;South Europe;Europe;46,2259;13,1034;;;;
189;The Amalfi Coast;Kampanien;Italy;South Europe;Europe;40,6333;14,6029;;;;
190;Capri and Ischia;Kampanien;Italy;South Europe;Europe;40,5532;14,2222;40,727;13,903;;
191;Naples;Kampanien;Italy;South Europe;Europe;40,8518;14,2681;;;;
192;Naples Ancient Sites;Kampanien;Italy;South Europe;Europe;40,7462;14,4989;40,8059;14,349;40,8224;14,4289
193;Rome;-;Italy;South Europe;Europe;41,9028;12,4964;;;;
194;Cinque Terre;Ligurien;Italy;South Europe;Europe;44,1461;9,6439;;;;
195;The Italian Riviera;Ligurien;Italy;South Europe;Europe;44,3039;9,2078;44,4056;8,9463;;
196;The Italian Lakes;Lombardien;Italy;South Europe;Europe;45,9676;8,6533;46,016;9,2572;45,6049;10,6351
197;The Last Supper and Other Works by Leonardo da Vinci;Mailand;Italy;South Europe;Europe;45,4662;9,1706;;;;
198;On and around the Piazza del Duomo;Mailand;Italy;South Europe;Europe;45,4642;9,1896;;;;
199;Palazzo Ducale and Palazzo del Te;Mantua;Italy;South Europe;Europe;45,1475;10,7866;45,1603;10,7988;;
200;Urbino and Pesaro;die Marken;Italy;South Europe;Europe;43,7263;12,6366;43,9125;12,9155;;
201;Pantelleria;-;Italy;South Europe;Europe;36,7853;11,9919;;;;
202;The Langhe;Piemont;Italy;South Europe;Europe;44,9008;8,2064;;;;
203;Sardinia;-;Italy;South Europe;Europe;40,1209;9,0129;;;;
204;The Aeolian Islands;Sizilien;Italy;South Europe;Europe;38,2358;14,575;;;;
205;The jewels of Palermo;Sizilien;Italy;South Europe;Europe;38,1157;13,3615;;;;
206;The greek temples of Sicily;Sizilien;Italy;South Europe;Europe;37,0755;15,2866;37,3089;13,5858;37,9414;12,8324
207;Taormina und der Ätna;Sizilien;Italy;South Europe;Europe;37,8516;15,2853;37,751;14,9934;;
208;Florence;Toskana;Italy;South Europe;Europe;43,7696;11,2558;;;;
209;The towns in the hills of Tuscany;Toskana;Italy;South Europe;Europe;43,4676;11,0435;43,0551;11,489;43,0774;11,6776
210;Lucca and Pisa;Toskana;Italy;South Europe;Europe;43,8429;10,5027;43,7228;10,4017;;
211;Maremma;Toskana;Italy;South Europe;Europe;42,6414;11,0862;;;;
212;Siena;Toskana;Italy;South Europe;Europe;43,3188;11,3308;;;;
213;The Great Dolomites Road and Cortina de Ampezzo;Trentino-Südtirol;Italy;South Europe;Europe;46,5405;12,1357;46,4102;11,844;;
214;Assisi and Gubbio;Umbrien;Italy;South Europe;Europe;43,0707;12,6196;43,3513;12,5753;;
215;The Dom;Orvieto (Umbrien);Italy;South Europe;Europe;42,7171;12,1133;;;;
216;Perugia;Umbrien;Italy;South Europe;Europe;43,1107;12,3908;;;;
217;Venice;Venetien;Italy;South Europe;Europe;45,4408;12,3155;;;;
218;Verona;Venetien;Italy;South Europe;Europe;45,4384;10,9916;;;;
219;Valetta;Malta;Malta;South Europe;Europe;35,8989;14,5146;;;;
220;Estremoz and Marvão;Alentejo;Portugal;South Europe;Europe;38,8424;-7,5889;39,3839;-7,3765;;
221;Évora;Alentejo;Portugal;South Europe;Europe;38,5714;-7,9135;;;;
222;The Bussaco forest;Beiras;Portugal;South Europe;Europe;40,3789;-8,3704;;;;
223;Óbidos;Estremadura;Portugal;South Europe;Europe;39,3604;-9,1582;;;;
224;Alfama;Lissabon;Portugal;South Europe;Europe;38,7125;-9,1303;;;;
225;Great museums from 3 collectors;Lissabon;Portugal;South Europe;Europe;38,7223;-9,1393;;;;
226;Sintra;Lissabon;Portugal;South Europe;Europe;38,8029;9,3817;;;;
227;Madeira;-;Portugal;South Europe;Europe;32,7607;-16,9695;;;;
228;Porto and the Douro Valley;Porto;Portugal;South Europe;Europe;41,1579;-8,6291;;;;
229;The Mezquita;Andalusien;Spain;South Europe;Europe;37,8789;-4,7794;;;;
230;La Alhambra;Andalusien;Spain;South Europe;Europe;37,1761;-3,5881;;;;
231;Jerez de la Frontera;Andalusien;Spain;South Europe;Europe;36,685;-6,1261;;;;
232;La Ruta de los Pueblos Blancos;Andalusien;Spain;South Europe;Europe;36,7462;-5,1612;36,756;-5,8117;;
233;Sevilla;Andalusien;Spain;South Europe;Europe;37,3891;-5,9845;;;;
234;The Balearic Islands;-;Spain;South Europe;Europe;39,6953;3,0176;39,02;1,4821;;
235;The Guggenheim Museum Bilbao;Baskenland;Spain;South Europe;Europe;43,2687;-2,934;;;;
236;Rioja;La Rioja ;Spain;South Europe;Europe;42,2871;-2,5396;;;;
237;San Sebastián and the Basque Country;-;Spain;South Europe;Europe;43,3183;1,9812;;;;
238;Cáceres;Extremadura;Spain;South Europe;Europe;39,4753;-6,3724;;;;
239;The road to Santiago and Santiago de Compostela;Galicien;Spain;South Europe;Europe;42,8769;-8,5442;;;;
240;The Cave of Altamira and Santillana del Mar;Kantabrien;Spain;South Europe;Europe;43,3775;-4,1223;43,3873;-4,1066;;
241;The Picos de Europa;Kantabrien;Spain;South Europe;Europe;43,1872;-4,8215;;;;
242;Cuenca;Kastilien-La Mancha;Spain;South Europe;Europe;40,0704;-2,1374;;;;
243;Ávila;Kastilien und Leon;Spain;South Europe;Europe;40,6567;-4,6812;;;;
244;León;Kastilien und Leon;Spain;South Europe;Europe;42,5984;-5,5719;;;;
245;The Plaza Mayor in Salamanca;Kastilien und Leon;Spain;South Europe;Europe;40,5753;-5,395;;;;
246;The old town;Barcelona, Katalonien;Spain;South Europe;Europe;41,3819;2,1782;;;;
247;Gaudí and la Sagrada Familia;Barcelona, Katalonien;Spain;South Europe;Europe;41,4036;2,1744;;;;
248;The Montjuïc;Barcelona, Katalonien;Spain;South Europe;Europe;41,364;2,1675;;;;
249;The Costa Brava;Katalonien;Spain;South Europe;Europe;42,2888;3,278;42,2655;2,9581;;
250;Madrid;Madrid;Spain;South Europe;Europe;40,4168;-3,7038;;;;
251;Valencia;-;Spain;South Europe;Europe;39,4699;-0,3763;;;;
252;The Painted Churches;Trodos-Gebirge;Cyprus;South Europe;Europe;34,67381;33,04167;;;;
253;The island of Saaremaa;-;Estonia;Eastern Europe;Europe;58,485;22,6136;;;;
254;The old town of Tallinn;Tallinn;Estonia;Eastern Europe;Europe;59,437;24,7536;;;;
255;Vardzia;Samzche-Dschawachetien;Georgia;Eastern Europe;Europe;41,3811;43,2842;;;;
256;The old town of Tbilisi;Tiflis;Georgia;Eastern Europe;Europe;41,7151;44,8271;;;;
257;Dubrovnik and the Dalmatian coast;-;Croatia;Eastern Europe;Europe;42,6507;18,0944;43,5147;16,4435;44,1194;15,2314
258;Istria;-;Croatia;Eastern Europe;Europe;45,0812;13,6387;44,8666;13,8496;45,2272;13,5947
259;Plitvice Lakes National Park;-;Croatia;Eastern Europe;Europe;44,8654;15,582;;;;
260;Old Riga;-;Latvia;Eastern Europe;Europe;56,9677;24,1056;;;;
261;Gauja National Park;Vidzeme;Latvia;Eastern Europe;Europe;57,3321;25,2123;;;;
262;The Curonian Spit;-;Lithuania;Eastern Europe;Europe;55,2783;20,9683;;;;
263;Old Vilnius;Vilnius;Lithuania;Eastern Europe;Europe;54,6872;25,2797;;;;
264;The Bay of Kotor;-;Montenegro;Eastern Europe;Europe;42,4297;18,6532;;;;
265;The Budva Riviera and Sveti Stefan;-;Montenegro;Eastern Europe;Europe;42,2911;18,8403;42,2515;18,8982;;
266;Auschwitz;-;Poland;Eastern Europe;Europe;50,0274;19,202;;;;
267;The Main Market;Krakau;Poland;Eastern Europe;Europe;50,0619;19,9368;;;;
268;The Wawel;Krakau;Poland;Eastern Europe;Europe;50,0541;19,9354;;;;
269;In the footsteps of Chopin;Warschau;Poland;Eastern Europe;Europe;52,2297;21,0122;;;;
270;Zakopane;-;Poland;Eastern Europe;Europe;49,2992;19,9496;;;;
271;Maramures;-;Romania;Eastern Europe;Europe;47,6738;23,7456;;;;
272;The Moldau monasteries in southern Bukovina;Moldau;Romania;Eastern Europe;Europe;47,5229;25,8641;47,5937;25,8541;47,7781;25,7113
273;Southern Transylvania;-;Romania;Eastern Europe;Europe;45,5149;25,3672;45,6427;25,5887;45,7936;24,1213
274;The Kamchatka Peninsula;Oblast Kamtschatka;Russia;Eastern Europe;Europe;53,0584;158,6321;54,431;160,139;54,5117;159,9156
275;The Bolshoi Theater;Moskau;Russia;Eastern Europe;Europe;55,7601;37,6186;;;;
276;The Kremlin and Red Square;Moskau;Russia;Eastern Europe;Europe;55,752;37,6175;55,7539;37,6208;;
277;The Tretyakov Gallery and the Moscow Metro;Moskau;Russia;Eastern Europe;Europe;55,7414;37,6209;55,7526;37,7199;;
278;On the Waterways of the Tsars;Moskau;Russia;Eastern Europe;Europe;55,7558;37,6173;59,9343;30,3351;;
279;Veliky Novgorod;Oblast Nowgorod;Russia;Eastern Europe;Europe;58,5256;31,2742;;;;
280;The white nights;St. Petersburg;Russia;Eastern Europe;Europe;59,9256;30,296;;;;
281;The Winter Palace and the Hermitage;St. Petersburg;Russia;Eastern Europe;Europe;59,9404;30,3138;59,9398;30,3146;;
282;Catherine Palace and Pavlosk Palace;Puschkin und Pawlowsk;Russia;Eastern Europe;Europe;59,7161;30,3957;59,6849;30,4558;;
283;Peterhof Palace;Oblast Leningrad;Russia;Eastern Europe;Europe;59,8863;29,9086;;;;
284;Yekaterinburg and the Ural Mountains;Oblast Swerdlowsk;Russia;Eastern Europe;Europe;56,8431;60,6454;;;;
285;The Trans-Siberian Railway and Lake Baikal;-;Russia;Eastern Europe;Europe;55,7558;37,6173;53,5587;108,165;;
286;The old town of Bratislava;Bratislava;Slovakia;Eastern Europe;Europe;48,1486;17,1077;;;;
287;Bled and the Julian Alps;Provinz Gorenjska;Slovenia;Eastern Europe;Europe;46,3683;14,1146;46,3783;13,8369;;
288;The old town of Ljubljana with the castle;Ljubljana;Slovenia;Eastern Europe;Europe;46,0569;14,5058;;;;
289;The caves of the Karst Plateau;Notranjska und Primorska;Slovenia;Eastern Europe;Europe;45,783;14,2038;45,5481;13,7302;;
290;Cesky Krumlov;Böhmen;Czech Republic;Eastern Europe;Europe;48,8127;14,3175;;;;
291;Carlsbad;Böhmen;Czech Republic;Eastern Europe;Europe;50,2319;12,872;;;;
292;Kutná Hora;Böhmen;Czech Republic;Eastern Europe;Europe;49,9524;15,2687;;;;
293;The Czech beer;Prag und Pilsen;Czech Republic;Eastern Europe;Europe;50,0643;14,442;;;;
294;The Old Town Square;Prag;Czech Republic;Eastern Europe;Europe;50,0876;14,4212;;;;
295;The Prague Castle District;Böhmen;Czech Republic;Eastern Europe;Europe;50,0911;14,4016;;;;
296;The borderland in southern Moravia;Mähren;Czech Republic;Eastern Europe;Europe;48,8053;16,6377;48,8015;16,8057;;
297;Olomouc;Mähren;Czech Republic;Eastern Europe;Europe;49,5938;17,2509;;;;
298;Cappadocia;Anatolien;Turkey;Eastern Europe;Europe;38,6312;34,9122;38,6431;34,8289;;
299;Pamukkale;Anatolien;Turkey;Eastern Europe;Europe;37,9137;29,1187;;;;
300;The Blue Voyage;Bodrum und Antalya;Turkey;Eastern Europe;Europe;36,8969;30,7133;37,0344;27,4305;;
301;The Datça Peninsula;-;Turkey;Eastern Europe;Europe;36,8549;28,2709;36,7262;27,6858;;
302;Ephesus;-;Turkey;Eastern Europe;Europe;37,9489;27,3677;;;;
303;Istanbul;-;Turkey;Eastern Europe;Europe;41,0082;28,9784;;;;
304;The Whirling Dervishes of Konya;Konya;Turkey;Eastern Europe;Europe;37,8746;32,4932;;;;
305;Patara and Demre;-;Turkey;Eastern Europe;Europe;36,2754;29,2844;36,2444;29,9875;;
306;Gallipoli;Thrakien;Turkey;Eastern Europe;Europe;40,3333;26,5;;;;
307;The Kiev Cave Monastery;Kiew;Ukraine;Eastern Europe;Europe;50,263;30,3333;;;;
308;The historical center of Lviv;Lwiw;Ukraine;Eastern Europe;Europe;49,8397;24,0297;;;;
309;The traditional thermal baths of Budapest;Budapest;Hungary;Eastern Europe;Europe;47,5188;19,0824;;;;
310;The castle hill;Budapest;Hungary;Eastern Europe;Europe;47,5029;19,0347;;;;
311;Gundel and Gerbeaud;Budapest;Hungary;Eastern Europe;Europe;47,5179;19,0774;;;;
312;The Danube Bend;-;Hungary;Eastern Europe;Europe;47,4096;19,4423;;;;
313;Lake Balaton;Mitteltransdanubien;Hungary;Eastern Europe;Europe;47,497;19,0503;;;;
314;Pécs;Südtransdanubien;Hungary;Eastern Europe;Europe;46,0727;18,2323;;;;
315;Bornholm;Hovedstaden;Denmark;Scandinavia;Europe;55,1604;14,8669;;;;
316;Kronborg Castle;Helsingor;Denmark;Scandinavia;Europe;56,0393;12,6218;;;;
317;Louisiana Museum of Modern Art;Homlebaek;Denmark;Scandinavia;Europe;55,9692;12,5423;;;;
318;Danish design;Kopenhagen;Denmark;Scandinavia;Europe;55,6761;12,5683;;;;
319;Denmark culinary revolution;Kopenhagen;Denmark;Scandinavia;Europe;55,6761;12,5683;;;;
320;Tivoli;Kopenhagen;Denmark;Scandinavia;Europe;55,6737;12,5681;;;;
321;Aarhus;Midtjylland;Denmark;Scandinavia;Europe;56,1629;10,2039;;;;
322;Skagen;Nordjylland;Denmark;Scandinavia;Europe;57,725;10,5792;;;;
323;Roskilde;Sjaelland;Denmark;Scandinavia;Europe;55,6419;12,0878;;;;
324;Aero;Syddanmark;Denmark;Scandinavia;Europe;54,8589;10,3875;;;;
325;Fünnen;Syddanmark;Denmark;Scandinavia;Europe;55,3291;10,2353;;;;
326;Ribe;Syddanmark;Denmark;Scandinavia;Europe;55,3269;8,7747;;;;
327;The Faroe Islands;-;Denmark;Scandinavia;Europe;61,8926;-6,9118;;;;
328;Disco Bay;Grönland;Denmark;Scandinavia;Europe;69,0263;-52,0447;;;;
329;The Aland Islands;-;Finland;Scandinavia;Europe;60,1785;19,9156;;;;
330;The Design District;Helsinki;Finland;Scandinavia;Europe;60,1699;24,9384;;;;
331;The world of Alvar Aalto;Helsinki und Jyväskyla;Finland;Scandinavia;Europe;60,1699;24,9384;62,2426;25,7473;;
332;Finnish Lapland;Lappland;Finland;Scandinavia;Europe;67,9222;26,5046;;;;
333;The Finnish Lakeland;Nord- und Südsavo;Finland;Scandinavia;Europe;61,341;28,011;;;;
334;Turku and the King Road;-;Finland;Scandinavia;Europe;60,4518;22,2666;;;;
335;The Hringvegur (Ring Road);-;Iceland;Scandinavia;Europe;64,1466;-21,9426;;;;
336;Lake Myvatn and Iceland Grand Canyon;-;Iceland;Scandinavia;Europe;65,6039;-16,9961;;;;
337;Bergen;-;Norway;Scandinavia;Europe;60,3913;5,3221;;;;
338;The Geirangerfjord;-;Norway;Scandinavia;Europe;62,1015;7,0941;;;;
339;The Lofoten;-;Norway;Scandinavia;Europe;68,4711;13,8636;68,23878;14,56755;;
340;The North Pole and Svalbard;-;Norway;Scandinavia;Europe;78,2263;15,6234;;;;
341;The Norwegian coast and the North Cape;-;Norway;Scandinavia;Europe;69,6498;18,9841;71,1757;25,78072;;
342;Munch Museum and National Gallery;Oslo;Norway;Scandinavia;Europe;59,9061;10,7557;59,9115;10,7292;;
343;The Viking Ship Museum;Oslo;Norway;Scandinavia;Europe;59,9049;10,6844;;;;
344;The Sognefjord;-;Norway;Scandinavia;Europe;61,1554;6,5806;;;;
345;The Hardangerfjord;Utne;Norway;Scandinavia;Europe;60,2253;6,0582;;;;
346;The Gota Canal;Götaland;Sweden;Scandinavia;Europe;59,3293;18,0686;57,7089;11,9746;;
347;Gotland;-;Sweden;Scandinavia;Europe;57,4684;18,4867;;;;
348;The Ice Hotel;Jukkasjärvi;Sweden;Scandinavia;Europe;67,8497;20,5967;;;;
349;The Stockholm archipelago;-;Sweden;Scandinavia;Europe;59,4033;18,3264;;;;
350;Gamla Stan;Stockholm;Sweden;Scandinavia;Europe;59,3257;18,0719;;;;
351;Smörgasbord;Solna und Stockholm;Sweden;Scandinavia;Europe;59,3293;18,0686;59,3689;18,0084;;
352;The Vasa Museum;Stockholm;Sweden;Scandinavia;Europe;59,328;18,0914;;;;
353;Drottningholm Palace and the Palace Theater;Mälarsee;Sweden;Scandinavia;Europe;59,3217;17,8868;59,3231;17,885;;
354;Gripsholm Castle;Mariefred;Sweden;Scandinavia;Europe;59,256;17,2192;;;;
355;Midsummer Night in Dalarna;Tällberg;Sweden;Scandinavia;Europe;61,0917;14,6664;;;;
